[{"OBJECT_NAME":"SCISAT 1","OBJECT_ID":"2003-036A","EPOCH":"2026-03-09T22:52:31.276992","MEAN_MOTION":14.8131333,"ECCENTRICITY":0.00057868,"INCLINATION":73.9323,"RA_OF_ASC_NODE":8.49,"ARG_OF_PERICENTER":97.7053,"MEAN_ANOMALY":262.4781,"EPHEMERIS_TYPE":0,"CLASSIFICATION_TYPE":"U","NORAD_CAT_ID":27858,"ELEMENT_SET_NO":999,"REV_AT_EPOCH":21675,"BSTAR":0.00015871313,"MEAN_MOTION_DOT":1.203e-5,"MEAN_MOTION_DDOT":0},{"OBJECT_NAME":"SL-14 R\/B","OBJECT_ID":"1987-062B","EPOCH":"2026-03-09T17:34:43.294656","MEAN_MOTION":14.85636456,"ECCENTRICITY":0.00206459,"INCLINATION":82.5145,"RA_OF_ASC_NODE":173.2193,"ARG_OF_PERICENTER":55.7426,"MEAN_ANOMALY":58.5002,"EPHEMERIS_TYPE":0,"CLASSIFICATION_TYPE":"U","NORAD_CAT_ID":18215,"ELEMENT_SET_NO":999,"REV_AT_EPOCH":6751,"BSTAR":7.5075343e-5,"MEAN_MOTION_DOT":6.77e-6,"MEAN_MOTION_DDOT":0}]
